0 FENGYUN 1C DEB
1 31902U 99025CLD 13281.37402898  .00000294  00000-0  13650-3 0  4387
2 31902 098.8486 326.2401 0191185 067.7540 350.0589 14.18638136328501
0 FENGYUN 1C DEB
1 31902U 99025CLD 13283.99463231  .00000412  00000-0  18388-3 0  4391
2 31902 098.8483 328.8561 0191091 060.2679 053.7277 14.18641146328876
0 FENGYUN 1C DEB
1 31902U 99025CLD 13286.38149543  .00000352  00000-0  15998-3 0  4403
2 31902 098.8477 331.2389 0190978 053.4531 003.6772 14.18642942329217
0 FENGYUN 1C DEB
1 31902U 99025CLD 13289.00199633  .00000467  00000-0  20624-3 0  4410
2 31902 098.8469 333.8548 0190858 045.9642 066.8665 14.18646486329588
0 FENGYUN 1C DEB
1 31902U 99025CLD 13291.38907558  .00000434  00000-0  19319-3 0  4421
2 31902 098.8464 336.2374 0190714 039.1357 017.9795 14.18648817329925
0 FENGYUN 1C DEB
1 31902U 99025CLD 13294.35103128  .00000457  00000-0  20254-3 0  4438
2 31902 098.8463 339.1933 0190567 030.6594 025.0904 14.18651779330343
